     2.100          NAVIGATION                              RINEX VERSION / TYPE
fic2rin                                 07/18/2013 00:57:45 PGM / RUN BY / DATE
                                                            END OF HEADER
20 13  7 17 12  0  0.0  .109899789095D-03  .227373675443D-11  .000000000000D+00
     .100000000000D+03  .386875000000D+02  .522628912449D-08  .342439902031D+00
     .175274908543D-05  .537629378960D-02  .983849167824D-05  .515371106529D+04
     .302400000000D+06 -.521540641785D-07 -.135073051542D+01  .111758708954D-07
     .927504801155D+00  .173500000000D+03  .128894755553D+01 -.838213486385D-08
    -.193936649668D-09  .100000000000D+01  .174900000000D+04  .000000000000D+00
     .340000000000D+01  .000000000000D+00 -.791624188423D-08  .100000000000D+03
     .295206000000D+06  .400000000000D+01
21 13  7 17 12  0  0.0 -.308801420033D-03 -.193267624127D-11  .000000000000D+00
     .630000000000D+02 -.262500000000D+02  .547808532710D-08  .875956809677D+00
    -.125356018543D-05  .204575674143D-01  .708736479282D-05  .515365297890D+04
     .302400000000D+06 -.307336449623D-06 -.234492844981D+01  .167638063431D-07
     .931619021260D+00  .234062500000D+03 -.211870115664D+01 -.874893585687D-08
    -.337156901081D-09  .100000000000D+01  .174900000000D+04  .000000000000D+00
     .240000000000D+01  .000000000000D+00 -.111758708954D-07  .630000000000D+02
     .295206000000D+06  .400000000000D+01
22 13  7 17 12  0  0.0  .175989232957D-03  .170530256582D-11  .000000000000D+00
     .850000000000D+02  .357187500000D+02  .528021994235D-08 -.742677719508D+00
     .200793147087D-05  .678995985072D-02  .995583832264D-05  .515364991760D+04
     .302400000000D+06 -.931322574615D-08 -.129481599143D+01  .145286321640D-06
     .924484150350D+00  .170562500000D+03 -.203436353438D+01 -.841320758672D-08
    -.996470078407D-10  .100000000000D+01  .174900000000D+04  .000000000000D+00
     .340000000000D+01  .000000000000D+00 -.172294676304D-07  .850000000000D+02
     .295206000000D+06  .400000000000D+01
23 13  7 17 12  0  0.0  .661509111524D-04 -.352429196937D-11  .000000000000D+00
     .600000000000D+02  .930937500000D+02  .476591280511D-08 -.288987279428D+01
     .481121242046D-05  .877285469323D-02  .578165054321D-05  .515368865204D+04
     .302400000000D+06 -.409781932831D-07 -.237066863678D+00 -.912696123123D-07
     .955469401879D+00  .271031250000D+03 -.285897368229D+01 -.817069748520D-08
     .181436128972D-09  .100000000000D+01  .174900000000D+04  .000000000000D+00
     .240000000000D+01  .000000000000D+00 -.200234353542D-07  .600000000000D+02
     .295206000000D+06  .400000000000D+01
24 13  7 17 12  0  0.0 -.101351179183D-04 -.682121026330D-12  .000000000000D+00
     .150000000000D+02 -.281250000000D+02  .483663003648D-08  .252869687616D+01
    -.146776437759D-05  .948853790760D-03  .315345823765D-05  .515367131805D+04
     .302400000000D+06 -.186264514923D-08  .789219450249D+00  .540167093277D-07
     .958800565824D+00  .317437500000D+03  .391822801084D+00 -.841320758672D-08
    -.153934983439D-09  .100000000000D+01  .174900000000D+04  .000000000000D+00
     .240000000000D+01  .000000000000D+00  .279396772385D-08  .150000000000D+02
     .295206000000D+06  .400000000000D+01
25 13  7 17 12  0  0.0  .123379752040D-03  .511590769747D-11  .000000000000D+00
     .160000000000D+02 -.724375000000D+02  .420053211188D-08  .538076088915D+00
    -.367499887943D-05  .273818091955D-02  .833161175251D-05  .515375439835D+04
     .302400000000D+06  .204890966415D-07  .183946147343D+01  .335276126862D-07
     .973282983749D+00  .224156250000D+03  .732397549858D+00 -.793711632704D-08
    -.625026034843D-10  .100000000000D+01  .174900000000D+04  .000000000000D+00
     .240000000000D+01  .000000000000D+00  .558793544769D-08  .160000000000D+02
     .295206000000D+06  .400000000000D+01
26 13  7 17 12  0  0.0  .100602861494D-03  .167119651451D-10  .000000000000D+00
     .450000000000D+02  .101562500000D+03  .426017745349D-08 -.290122382727D+01
     .499375164509D-05  .210790002020D-01  .531785190105D-05  .515369506645D+04
     .302400000000D+06  .340864062309D-06 -.155439927680D+00 -.199303030968D-06
     .978717632249D+00  .282937500000D+03  .124644847455D+01 -.780211070351D-08
     .257867884090D-09  .100000000000D+01  .174900000000D+04  .000000000000D+00
     .240000000000D+01  .000000000000D+00 -.605359673500D-08  .450000000000D+02
     .295206000000D+06  .400000000000D+01
27 13  7 17 12  0  0.0 -.118985772133D-04 -.488853402203D-11  .000000000000D+00
     .960000000000D+02 -.800000000000D+01  .451590239118D-08 -.242534927714D+01
    -.325962901115D-06  .280252192169D-03  .771880149841D-05  .515365947151D+04
     .302400000000D+06 -.949949026108D-07  .288933538108D+01  .447034835815D-07
     .960760580540D+00  .232468750000D+03  .872706363700D+00 -.800569061201D-08
     .310727228751D-09  .100000000000D+01  .174900000000D+04  .000000000000D+00
     .340000000000D+01  .000000000000D+00  .372529029846D-08  .960000000000D+02
     .295206000000D+06  .400000000000D+01
28 13  7 17 12  0  0.0  .276446342468D-03  .318323145621D-11  .000000000000D+00
     .430000000000D+02 -.644375000000D+02  .398123726308D-08 -.867942501175D+00
    -.330433249474D-05  .186275030719D-01  .981241464615D-05  .515365324020D+04
     .302400000000D+06 -.245869159698D-06  .190291253297D+01  .247731804848D-06
     .983620779205D+00  .204156250000D+03 -.176748697625D+01 -.810140888477D-08
    -.714315468392D-11  .100000000000D+01  .174900000000D+04  .000000000000D+00
     .240000000000D+01  .000000000000D+00 -.107102096081D-07  .430000000000D+02
     .295206000000D+06  .400000000000D+01
30 13  7 17 12  0  0.0 -.169703271240D-03  .113686837722D-11  .000000000000D+00
     .130000000000D+02 -.591875000000D+02  .528021994235D-08 -.736500186578D+00
    -.317022204399D-05  .636328372639D-02  .837817788124D-05  .515369417000D+04
     .302400000000D+06  .204890966415D-07  .185632770613D+01  .117346644402D-06
     .978104777830D+00  .226562500000D+03  .880750267035D+00 -.791675833619D-08
    -.817891211309D-10  .100000000000D+01  .174900000000D+04  .000000000000D+00
     .240000000000D+01  .630000000000D+02 -.190921127796D-07  .130000000000D+02
     .295206000000D+06  .400000000000D+01
31 13  7 17 12  0  0.0  .320941209793D-03  .113686837722D-11  .000000000000D+00
     .670000000000D+02 -.278125000000D+02  .427803534020D-08  .183839997569D+01
    -.132247805595D-05  .783518038224D-02  .391341745853D-05  .515363250542D+04
     .302400000000D+06  .119209289551D-06  .823341677977D+00 -.428408384323D-07
     .980263695278D+00  .309968750000D+03 -.734599424432D+00 -.808997983728D-08
    -.283226083217D-09  .100000000000D+01  .174900000000D+04  .000000000000D+00
     .240000000000D+01  .000000000000D+00 -.130385160446D-07  .670000000000D+02
     .295206000000D+06  .400000000000D+01
32 13  7 17 12  0  0.0 -.557993538678D-03  .909494701773D-12  .000000000000D+00
     .570000000000D+02  .572187500000D+02  .463447875893D-08  .231877164571D+01
     .286847352982D-05  .115866552806D-01  .997260212898D-05  .515364883423D+04
     .302400000000D+06  .204890966415D-07 -.120990735274D+01  .234693288803D-06
     .948701183589D+00  .177562500000D+03 -.335404894297D+00 -.795854579109D-08
    -.195365280605D-09  .100000000000D+01  .174900000000D+04  .000000000000D+00
     .240000000000D+01  .000000000000D+00 -.279396772385D-08  .570000000000D+02
     .295206000000D+06  .400000000000D+01
15 13  7 17 11 59 12.0 -.127999577671D-03 -.170530256582D-11  .000000000000D+00
     .100000000000D+01  .101562500000D+03  .512985653626D-08 -.241171693751D+01
     .511296093464D-05  .547277496662D-02  .627525150776D-05  .515379455185D+04
     .302352000000D+06 -.968575477600D-07 -.278973094178D+00 -.167638063431D-06
     .940490323266D+00  .250750000000D+03  .162149266442D+00 -.841177895579D-08
     .200722646618D-09  .100000000000D+01  .174900000000D+04  .000000000000D+00
     .240000000000D+01  .000000000000D+00 -.102445483208D-07  .100000000000D+01
     .296046000000D+06  .400000000000D+01
20 13  7 17 11 59 44.0  .109898392111D-03  .227373675443D-11  .000000000000D+00
     .500000000000D+01  .386875000000D+02  .522593196676D-08  .340106035673D+00
     .175274908543D-05  .537629332393D-02  .983849167824D-05  .515371107864D+04
     .302384000000D+06 -.521540641785D-07 -.135073038668D+01  .111758708954D-07
     .927504809933D+00  .173500000000D+03  .128894764477D+01 -.838213486385D-08
    -.193936649668D-09  .100000000000D+01  .174900000000D+04  .000000000000D+00
     .240000000000D+01  .000000000000D+00 -.791624188423D-08  .500000000000D+01
     .296166000000D+06  .400000000000D+01
 9 13  7 17 11 59 44.0  .255083665252D-03  .261479726760D-11  .000000000000D+00
     .300000000000D+01 -.364375000000D+02  .427410660512D-08  .284306735061D+01
    -.170432031155D-05  .173974189674D-01  .331737101078D-05  .515277690315D+04
     .302384000000D+06  .350177288055D-06  .795730588482D+00 -.465661287308D-07
     .983906972795D+00  .323343750000D+03  .169034447958D+01 -.798176104381D-08
    -.279654505876D-09  .100000000000D+01  .174900000000D+04  .000000000000D+00
     .240000000000D+01  .000000000000D+00 -.558793544769D-08  .300000000000D+01
     .299436000000D+06  .400000000000D+01
19 13  7 17 11 59 44.0 -.389462336898D-03 -.295585778076D-11  .000000000000D+00
     .210000000000D+02 -.105000000000D+02  .451233081383D-08 -.242435103305D+01
    -.543892383575D-06  .945175264496D-02  .745058059692D-05  .515371864700D+04
     .302384000000D+06 -.242143869400D-07  .298461634594D+01 -.800937414169D-07
     .963417138831D+00  .238687500000D+03  .341267387819D+00 -.794961684774D-08
     .391802034413D-09  .100000000000D+01  .174900000000D+04  .000000000000D+00
     .240000000000D+01  .000000000000D+00 -.149011611938D-07  .210000000000D+02
     .299856000000D+06  .400000000000D+01
